{"type": "FeatureCollection", "features": [ {"type": "Feature", "properties": {"norad_id": 37834, "name": "INTELSAT 18 (IS-18)", "group": "intelsat", "lat": 0.020238362228572882, "lon": 13.71542862103302, "alt_km": 35789.385875793654, "timestamp": "2025-12-09T07:41:32.871177+00:00", "meta": {"OBJECT_NAME": "INTELSAT 18 (IS-18)", "OBJECT_ID": "2011-056A", "EPOCH": "2025-12-08T19:35:48.907392", "MEAN_MOTION": 1.00271076, "ECCENTRICITY": 0.00020866, "INCLINATION": 0.0163, "RA_OF_ASC_NODE": 339.8091, "ARG_OF_PERICENTER": 283.0616, "MEAN_ANOMALY": 288.8971, "EPHEMERIS_TYPE": 0, "CLASSIFICATION_TYPE": "U", "NORAD_CAT_ID": 37834, "ELEMENT_SET_NO": 999, "REV_AT_EPOCH": 5190, "BSTAR": 0, "MEAN_MOTION_DOT": 5.5e-07, "MEAN_MOTION_DDOT": 0}, "tle": {"line1": "1 37834U 11056A   25342.81653828  .00000055  00000+0  00000+0 0  9993", "line2": "2 37834   0.0163 339.8091 0002086 283.0616 288.8971  1.00271076 51904"}}, "geometry": {"type": "Point", "coordinates": [13.71542862103302, 0.020238362228572882]}}, {"type": "Feature", "properties": {"norad_id": 38098, "name": "INTELSAT 22 (IS-22)", "group": "intelsat", "lat": -0.03041426617968739, "lon": -94.18567113500207, "alt_km": 35778.91966121562, "timestamp": "2025-12-09T07:41:32.871190+00:00", "meta": {"OBJECT_NAME": "INTELSAT 22 (IS-22)", "OBJECT_ID": "2012-011A", "EPOCH": "2025-12-08T23:20:38.624928", "MEAN_MOTION": 1.00274102, "ECCENTRICITY": 0.00015396, "INCLINATION": 0.0193, "RA_OF_ASC_NODE": 310.404, "ARG_OF_PERICENTER": 313.6812, "MEAN_ANOMALY": 236.1604, "EPHEMERIS_TYPE": 0, "CLASSIFICATION_TYPE": "U", "NORAD_CAT_ID": 38098, "ELEMENT_SET_NO": 999, "REV_AT_EPOCH": 528, "BSTAR": 0, "MEAN_MOTION_DOT": -5.7e-07, "MEAN_MOTION_DDOT": 0}, "tle": {"line1": "1 38098U 12011A   25342.97266927 -.00000057  00000+0  00000+0 0  9998", "line2": "2 38098   0.0193 310.4040 0001539 313.6812 236.1604  1.00274102  5281"}}, "geometry": {"type": "Point", "coordinates": [-94.18567113500207, -0.03041426617968739]}}, {"type": "Feature", "properties": {"norad_id": 38356, "name": "INTELSAT 19 (IS-19)", "group": "intelsat", "lat": 0.012110251824190264, "lon": -0.2585850970989863, "alt_km": 35787.28158729691, "timestamp": "2025-12-09T07:41:32.871202+00:00", "meta": {"OBJECT_NAME": "INTELSAT 19 (IS-19)", "OBJECT_ID": "2012-030A", "EPOCH": "2025-12-08T20:03:38.651328", "MEAN_MOTION": 1.00271529, "ECCENTRICITY": 0.00035541, "INCLINATION": 0.0098, "RA_OF_ASC_NODE": 331.8017, "ARG_OF_PERICENTER": 293.6359, "MEAN_ANOMALY": 279.3134, "EPHEMERIS_TYPE": 0, "CLASSIFICATION_TYPE": "U", "NORAD_CAT_ID": 38356, "ELEMENT_SET_NO": 999, "REV_AT_EPOCH": 4854, "BSTAR": 0, "MEAN_MOTION_DOT": -5.4e-07, "MEAN_MOTION_DDOT": 0}, "tle": {"line1": "1 38356U 12030A   25342.83586402 -.00000054  00000+0  00000+0 0  9991", "line2": "2 38356   0.0098 331.8017 0003554 293.6359 279.3134  1.00271529 48548"}}, "geometry": {"type": "Point", "coordinates": [-0.2585850970989863, 0.012110251824190264]}}, {"type": "Feature", "properties": {"norad_id": 38740, "name": "INTELSAT 20 (IS-20)", "group": "intelsat", "lat": -0.00033286730123780834, "lon": -97.76405551379244, "alt_km": 35784.41275547182, "timestamp": "2025-12-09T07:41:32.871213+00:00", "meta": {"OBJECT_NAME": "INTELSAT 20 (IS-20)", "OBJECT_ID": "2012-043A", "EPOCH": "2025-12-08T23:28:38.588160", "MEAN_MOTION": 1.00270082, "ECCENTRICITY": 0.00026935, "INCLINATION": 0.0056, "RA_OF_ASC_NODE": 88.8625, "ARG_OF_PERICENTER": 94.1277, "MEAN_ANOMALY": 315.6576, "EPHEMERIS_TYPE": 0, "CLASSIFICATION_TYPE": "U", "NORAD_CAT_ID": 38740, "ELEMENT_SET_NO": 999, "REV_AT_EPOCH": 4884, "BSTAR": 0, "MEAN_MOTION_DOT": -2.2e-07, "MEAN_MOTION_DDOT": 0}, "tle": {"line1": "1 38740U 12043A   25342.97822440 -.00000022  00000+0  00000+0 0  9997", "line2": "2 38740   0.0056  88.8625 0002693  94.1277 315.6576  1.00270082 48849"}}, "geometry": {"type": "Point", "coordinates": [-97.76405551379244, -0.00033286730123780834]}}, {"type": "Feature", "properties": {"norad_id": 38749, "name": "INTELSAT 21 (IS-21)", "group": "intelsat", "lat": 0.02261406756547298, "lon": 135.67692238007467, "alt_km": 35790.95249133478, "timestamp": "2025-12-09T07:41:32.871247+00:00", "meta": {"OBJECT_NAME": "INTELSAT 21 (IS-21)", "OBJECT_ID": "2012-045A", "EPOCH": "2025-12-08T21:53:16.386144", "MEAN_MOTION": 1.00270541, "ECCENTRICITY": 0.00021836, "INCLINATION": 0.0131, "RA_OF_ASC_NODE": 17.8332, "ARG_OF_PERICENTER": 236.7664, "MEAN_ANOMALY": 93.6334, "EPHEMERIS_TYPE": 0, "CLASSIFICATION_TYPE": "U", "NORAD_CAT_ID": 38749, "ELEMENT_SET_NO": 999, "REV_AT_EPOCH": 4861, "BSTAR": 0, "MEAN_MOTION_DOT": -2.83e-06, "MEAN_MOTION_DDOT": 0}, "tle": {"line1": "1 38749U 12045A   25342.91199521 -.00000283  00000+0  00000+0 0  9998", "line2": "2 38749   0.0131  17.8332 0002183 236.7664  93.6334  1.00270541 48617"}}, "geometry": {"type": "Point", "coordinates": [135.67692238007467, 0.02261406756547298]}}, {"type": "Feature", "properties": {"norad_id": 38867, "name": "INTELSAT 23 (IS-23)", "group": "intelsat", "lat": 0.03428124619789847, "lon": 140.6569855188592, "alt_km": 35784.468810915656, "timestamp": "2025-12-09T07:41:32.871262+00:00", "meta": {"OBJECT_NAME": "INTELSAT 23 (IS-23)", "OBJECT_ID": "2012-057A", "EPOCH": "2025-12-08T21:54:46.242144", "MEAN_MOTION": 1.00260603, "ECCENTRICITY": 0.00020701, "INCLINATION": 0.0414, "RA_OF_ASC_NODE": 93.9999, "ARG_OF_PERICENTER": 103.0595, "MEAN_ANOMALY": 156.5414, "EPHEMERIS_TYPE": 0, "CLASSIFICATION_TYPE": "U", "NORAD_CAT_ID": 38867, "ELEMENT_SET_NO": 999, "REV_AT_EPOCH": 4804, "BSTAR": 0, "MEAN_MOTION_DOT": -2.83e-06, "MEAN_MOTION_DDOT": 0}, "tle": {"line1": "1 38867U 12057A   25342.91303521 -.00000283  00000+0  00000+0 0  9999", "line2": "2 38867   0.0414  93.9999 0002070 103.0595 156.5414  1.00260603 48043"}}, "geometry": {"type": "Point", "coordinates": [140.6569855188592, 0.03428124619789847]}}, {"type": "Feature", "properties": {"norad_id": 39360, "name": "FM-6", "group": "intelsat", "lat": 0.005134486641072753, "lon": 77.50676400379547, "alt_km": 35788.28102109192, "timestamp": "2025-12-09T07:41:32.871275+00:00", "meta": {"OBJECT_NAME": "FM-6", "OBJECT_ID": "2013-058A", "EPOCH": "2025-12-08T13:15:20.428992", "MEAN_MOTION": 1.0026711, "ECCENTRICITY": 0.000319, "INCLINATION": 0.0119, "RA_OF_ASC_NODE": 96.1147, "ARG_OF_PERICENTER": 75.3013, "MEAN_ANOMALY": 348.8342, "EPHEMERIS_TYPE": 0, "CLASSIFICATION_TYPE": "U", "NORAD_CAT_ID": 39360, "ELEMENT_SET_NO": 999, "REV_AT_EPOCH": 4416, "BSTAR": 0, "MEAN_MOTION_DOT": -1.4e-07, "MEAN_MOTION_DDOT": 0}, "tle": {"line1": "1 39360U 13058A   25342.55231978 -.00000014  00000+0  00000+0 0  9998", "line2": "2 39360   0.0119  96.1147 0003190  75.3013 348.8342  1.00267110 44169"}}, "geometry": {"type": "Point", "coordinates": [77.50676400379547, 0.005134486641072753]}}, {"type": "Feature", "properties": {"norad_id": 40271, "name": "INTELSAT 30 (IS-30)", "group": "intelsat", "lat": 0.03084713377854018, "lon": 98.64073695145278, "alt_km": 35781.39609748159, "timestamp": "2025-12-09T07:41:32.871287+00:00", "meta": {"OBJECT_NAME": "INTELSAT 30 (IS-30)", "OBJECT_ID": "2014-062A", "EPOCH": "2025-12-08T21:42:47.389824", "MEAN_MOTION": 1.00270272, "ECCENTRICITY": 0.00012284, "INCLINATION": 0.0131, "RA_OF_ASC_NODE": 15.5862, "ARG_OF_PERICENTER": 73.3362, "MEAN_ANOMALY": 219.6224, "EPHEMERIS_TYPE": 0, "CLASSIFICATION_TYPE": "U", "NORAD_CAT_ID": 40271, "ELEMENT_SET_NO": 999, "REV_AT_EPOCH": 487, "BSTAR": 0, "MEAN_MOTION_DOT": -1.49e-06, "MEAN_MOTION_DDOT": 0}, "tle": {"line1": "1 40271U 14062A   25342.90471516 -.00000149  00000+0  00000+0 0  9999", "line2": "2 40271   0.0131  15.5862 0001228  73.3362 219.6224  1.00270272  4871"}}, "geometry": {"type": "Point", "coordinates": [98.64073695145278, 0.03084713377854018]}}, {"type": "Feature", "properties": {"norad_id": 40333, "name": "DIRECTV 14", "group": "intelsat", "lat": 0.034360735624977004, "lon": 94.4724528698822, "alt_km": 35787.01516523522, "timestamp": "2025-12-09T07:41:32.871299+00:00", "meta": {"OBJECT_NAME": "DIRECTV 14", "OBJECT_ID": "2014-078B", "EPOCH": "2025-12-08T21:41:32.510400", "MEAN_MOTION": 1.00270463, "ECCENTRICITY": 4.867e-05, "INCLINATION": 0.018, "RA_OF_ASC_NODE": 334.9278, "ARG_OF_PERICENTER": 225.073, "MEAN_ANOMALY": 104.0704, "EPHEMERIS_TYPE": 0, "CLASSIFICATION_TYPE": "U", "NORAD_CAT_ID": 40333, "ELEMENT_SET_NO": 999, "REV_AT_EPOCH": 4013, "BSTAR": 0, "MEAN_MOTION_DOT": -1.23e-06, "MEAN_MOTION_DDOT": 0}, "tle": {"line1": "1 40333U 14078B   25342.90384850 -.00000123  00000+0  00000+0 0  9991", "line2": "2 40333   0.0180 334.9278 0000486 225.0730 104.0704  1.00270463 40134"}}, "geometry": {"type": "Point", "coordinates": [94.4724528698822, 0.034360735624977004]}}, {"type": "Feature", "properties": {"norad_id": 40663, "name": "DIRECTV 15", "group": "intelsat", "lat": 0.025361797662163257, "lon": 90.83082672131258, "alt_km": 35788.177049320424, "timestamp": "2025-12-09T07:41:32.871311+00:00", "meta": {"OBJECT_NAME": "DIRECTV 15", "OBJECT_ID": "2015-026A", "EPOCH": "2025-12-08T14:49:37.716960", "MEAN_MOTION": 1.0026899, "ECCENTRICITY": 3.149e-05, "INCLINATION": 0.0368, "RA_OF_ASC_NODE": 78.2463, "ARG_OF_PERICENTER": 203.1344, "MEAN_ANOMALY": 275.7875, "EPHEMERIS_TYPE": 0, "CLASSIFICATION_TYPE": "U", "NORAD_CAT_ID": 40663, "ELEMENT_SET_NO": 999, "REV_AT_EPOCH": 3855, "BSTAR": 0, "MEAN_MOTION_DOT": -1e-06, "MEAN_MOTION_DDOT": 0}, "tle": {"line1": "1 40663U 15026A   25342.61779765 -.00000100  00000+0  00000+0 0  9997", "line2": "2 40663   0.0368  78.2463 0000314 203.1344 275.7875  1.00268990 38550"}}, "geometry": {"type": "Point", "coordinates": [90.83082672131258, 0.025361797662163257]}}]}